#cP2005  4  2 00 00 00.00000000    8638 U+u   IGS00 FIT DEOS
## 1316 518400.00000000    10.00000000 53462 0.0000000000000
+    1   L06  0  0  0  0  0  0  0  0  0  0  0  0  0  0  0  0
+          0  0  0  0  0  0  0  0  0  0  0  0  0  0  0  0  0
+          0  0  0  0  0  0  0  0  0  0  0  0  0  0  0  0  0
+          0  0  0  0  0  0  0  0  0  0  0  0  0  0  0  0  0
+          0  0  0  0  0  0  0  0  0  0  0  0  0  0  0  0  0
++         0  0  0  0  0  0  0  0  0  0  0  0  0  0  0  0  0
++         0  0  0  0  0  0  0  0  0  0  0  0  0  0  0  0  0
++         0  0  0  0  0  0  0  0  0  0  0  0  0  0  0  0  0
++         0  0  0  0  0  0  0  0  0  0  0  0  0  0  0  0  0
++         0  0  0  0  0  0  0  0  0  0  0  0  0  0  0  0  0
%c cc cc ccc ccc cccc cccc cccc cccc ccccc ccccc ccccc ccccc
%c cc cc ccc ccc cccc cccc cccc cccc ccccc ccccc ccccc ccccc
%f   .0000000   .000000000   .00000000000   .000000000000000
%f   .0000000   .000000000   .00000000000   .000000000000000
%i    0    0    0    0      0      0      0      0         0
%i    0    0    0    0      0      0      0      0         0
/* NOTE: CCCCCCCCCCCCCCCCCCCCCCCCCCCCCCCCCCCCCCCCCCCCCCCCCCC
/* CCCCCCCCCCCCCCCCCCCCCCCCCCCCCCCCCCCCCCCCCCCCCCCCCCCCCCCCC
/* CCCCCCCCCCCCCCCCCCCCCCCCCCCCCCCCCCCCCCCCCCCCCCCCCCCCCCCCC
/* CCCCCCCCCCCCCCCCCCCCCCCCCCCCCCCCCCCCCCCCCCCCCCCCCCCCCCCCC
*  2005 04 02 12 39 30.00000000
PL06  -1971.512483     42.218852  -6452.699205 999999.999999
*  2005 04 02 12 39 40.00000000
PL06  -2044.000968     32.650105  -6430.137766 999999.999999
*  2005 04 02 12 39 50.00000000
PL06  -2116.240554     23.182702  -6406.743832 999999.999999
*  2005 04 02 12 40 00.00000000
PL06  -2188.221792     13.817490  -6382.520384 999999.999999
*  2005 04 02 12 40 10.00000000
PL06  -2259.935261      4.555288  -6357.470510 999999.999999
*  2005 04 02 12 40 20.00000000
PL06  -2331.371573     -4.603109  -6331.597402 999999.999999
*  2005 04 02 12 40 30.00000000
PL06  -2402.521374    -13.656935  -6304.904358 999999.999999
*  2005 04 02 12 40 40.00000000
PL06  -2473.375342    -22.605453  -6277.394783 999999.999999
*  2005 04 02 12 40 50.00000000
PL06  -2543.924191    -31.447948  -6249.072184 999999.999999
*  2005 04 02 12 41 00.00000000
PL06  -2614.158671    -40.183735  -6219.940173 999999.999999
*  2005 04 02 12 41 10.00000000
PL06  -2684.069570    -48.812158  -6190.002468 999999.999999
*  2005 04 02 12 41 20.00000000
PL06  -2753.647715    -57.332583  -6159.262887 999999.999999
*  2005 04 02 12 41 30.00000000
PL06  -2822.883970    -65.744407  -6127.725355 999999.999999
*  2005 04 02 12 41 40.00000000
PL06  -2891.769243    -74.047053  -6095.393898 999999.999999
*  2005 04 02 12 41 50.00000000
PL06  -2960.294484    -82.239970  -6062.272644 999999.999999
*  2005 04 02 12 42 00.00000000
PL06  -3028.450686    -90.322636  -6028.365824 999999.999999
*  2005 04 02 12 42 10.00000000
PL06  -3096.228886    -98.294555  -5993.677771 999999.999999
*  2005 04 02 12 42 20.00000000
PL06  -3163.620171   -106.155257  -5958.212918 999999.999999
*  2005 04 02 12 42 30.00000000
PL06  -3230.615670   -113.904300  -5921.975799 999999.999999
*  2005 04 02 12 42 40.00000000
PL06  -3297.206564   -121.541271  -5884.971046 999999.999999
*  2005 04 02 12 42 50.00000000
PL06  -3363.384083   -129.065781  -5847.203394 999999.999999
*  2005 04 02 12 43 00.00000000
PL06  -3429.139507   -136.477470  -5808.677672 999999.999999
*  2005 04 02 12 43 10.00000000
PL06  -3494.464168   -143.776004  -5769.398811 999999.999999
*  2005 04 02 12 43 20.00000000
PL06  -3559.349453   -150.961075  -5729.371837 999999.999999
*  2005 04 02 12 43 30.00000000
PL06  -3623.786800   -158.032404  -5688.601874 999999.999999
*  2005 04 02 12 43 40.00000000
PL06  -3687.767704   -164.989739  -5647.094142 999999.999999
*  2005 04 02 12 43 50.00000000
PL06  -3751.283717   -171.832852  -5604.853957 999999.999999
*  2005 04 02 12 44 00.00000000
PL06  -3814.326446   -178.561544  -5561.886730 999999.999999
*  2005 04 02 12 44 10.00000000
PL06  -3876.887559   -185.175642  -5518.197967 999999.999999
*  2005 04 02 12 44 20.00000000
PL06  -3938.958782   -191.675001  -5473.793267 999999.999999
*  2005 04 02 12 44 30.00000000
PL06  -4000.531903   -198.059500  -5428.678322 999999.999999
*  2005 04 02 12 44 40.00000000
PL06  -4061.598772   -204.329047  -5382.858917 999999.999999
*  2005 04 02 12 44 50.00000000
PL06  -4122.151302   -210.483576  -5336.340931 999999.999999
*  2005 04 02 12 45 00.00000000
PL06  -4182.181468   -216.523045  -5289.130331 999999.999999
*  2005 04 02 12 45 10.00000000
PL06  -4241.681313   -222.447441  -5241.233176 999999.999999
*  2005 04 02 12 45 20.00000000
PL06  -4300.642946   -228.256776  -5192.655614 999999.999999
*  2005 04 02 12 45 30.00000000
PL06  -4359.058541   -233.951089  -5143.403884 999999.999999
*  2005 04 02 12 45 40.00000000
PL06  -4416.920342   -239.530444  -5093.484311 999999.999999
*  2005 04 02 12 45 50.00000000
PL06  -4474.220664   -244.994931  -5042.903310 999999.999999
*  2005 04 02 12 46 00.00000000
PL06  -4530.951891   -250.344666  -4991.667380 999999.999999
*  2005 04 02 12 46 10.00000000
PL06  -4587.106479   -255.579792  -4939.783109 999999.999999
*  2005 04 02 12 46 20.00000000
PL06  -4642.676956   -260.700475  -4887.257168 999999.999999
*  2005 04 02 12 46 30.00000000
PL06  -4697.655925   -265.706909  -4834.096313 999999.999999
*  2005 04 02 12 46 40.00000000
PL06  -4752.036063   -270.599313  -4780.307383 999999.999999
*  2005 04 02 12 46 50.00000000
PL06  -4805.810123   -275.377929  -4725.897301 999999.999999
*  2005 04 02 12 47 00.00000000
PL06  -4858.970933   -280.043026  -4670.873072 999999.999999
*  2005 04 02 12 47 10.00000000
PL06  -4911.511401   -284.594898  -4615.241782 999999.999999
*  2005 04 02 12 47 20.00000000
PL06  -4963.424512   -289.033862  -4559.010596 999999.999999
*  2005 04 02 12 47 30.00000000
PL06  -5014.703333   -293.360262  -4502.186763 999999.999999
*  2005 04 02 12 47 40.00000000
PL06  -5065.341010   -297.574464  -4444.777606 999999.999999
*  2005 04 02 12 47 50.00000000
PL06  -5115.330773   -301.676860  -4386.790529 999999.999999
*  2005 04 02 12 48 00.00000000
PL06  -5164.665934   -305.667867  -4328.233010 999999.999999
*  2005 04 02 12 48 10.00000000
PL06  -5213.339888   -309.547923  -4269.112605 999999.999999
*  2005 04 02 12 48 20.00000000
PL06  -5261.346117   -313.317493  -4209.436943 999999.999999
*  2005 04 02 12 48 30.00000000
PL06  -5308.678186   -316.977063  -4149.213727 999999.999999
*  2005 04 02 12 48 40.00000000
PL06  -5355.329748   -320.527144  -4088.450733 999999.999999
*  2005 04 02 12 48 50.00000000
PL06  -5401.294544   -323.968272  -4027.155811 999999.999999
*  2005 04 02 12 49 00.00000000
PL06  -5446.566401   -327.301001  -3965.336878 999999.999999
*  2005 04 02 12 49 10.00000000
PL06  -5491.139238   -330.525913  -3903.001925 999999.999999
*  2005 04 02 12 49 20.00000000
PL06  -5535.007062   -333.643610  -3840.159010 999999.999999
*  2005 04 02 12 49 30.00000000
PL06  -5578.163973   -336.654716  -3776.816258 999999.999999
*  2005 04 02 12 49 40.00000000
PL06  -5620.604161   -339.559878  -3712.981861 999999.999999
*  2005 04 02 12 49 50.00000000
PL06  -5662.321909   -342.359765  -3648.664080 999999.999999
*  2005 04 02 12 50 00.00000000
PL06  -5703.311594   -345.055068  -3583.871236 999999.999999
*  2005 04 02 12 50 10.00000000
PL06  -5743.567687   -347.646497  -3518.611718 999999.999999
*  2005 04 02 12 50 20.00000000
PL06  -5783.084753   -350.134788  -3452.893975 999999.999999
*  2005 04 02 12 50 30.00000000
PL06  -5821.857454   -352.520693  -3386.726518 999999.999999
*  2005 04 02 12 50 40.00000000
PL06  -5859.880549   -354.804988  -3320.117919 999999.999999
*  2005 04 02 12 50 50.00000000
PL06  -5897.148892   -356.988470  -3253.076810 999999.999999
*  2005 04 02 12 51 00.00000000
PL06  -5933.657437   -359.071955  -3185.611879 999999.999999
*  2005 04 02 12 51 10.00000000
PL06  -5969.401236   -361.056279  -3117.731875 999999.999999
*  2005 04 02 12 51 20.00000000
PL06  -6004.375441   -362.942300  -3049.445600 999999.999999
*  2005 04 02 12 51 30.00000000
PL06  -6038.575305   -364.730894  -2980.761913 999999.999999
*  2005 04 02 12 51 40.00000000
PL06  -6071.996181   -366.422958  -2911.689726 999999.999999
*  2005 04 02 12 51 50.00000000
PL06  -6104.633525   -368.019406  -2842.238004 999999.999999
*  2005 04 02 12 52 00.00000000
PL06  -6136.482894   -369.521174  -2772.415763 999999.999999
*  2005 04 02 12 52 10.00000000
PL06  -6167.539950   -370.929213  -2702.232070 999999.999999
*  2005 04 02 12 52 20.00000000
PL06  -6197.800457   -372.244496  -2631.696041 999999.999999
*  2005 04 02 12 52 30.00000000
PL06  -6227.260284   -373.468013  -2560.816840 999999.999999
*  2005 04 02 12 52 40.00000000
PL06  -6255.915406   -374.600772  -2489.603678 999999.999999
*  2005 04 02 12 52 50.00000000
PL06  -6283.761902   -375.643798  -2418.065812 999999.999999
*  2005 04 02 12 53 00.00000000
PL06  -6310.795959   -376.598134  -2346.212543 999999.999999
*  2005 04 02 12 53 10.00000000
PL06  -6337.013870   -377.464840  -2274.053217 999999.999999
*  2005 04 02 12 53 20.00000000
PL06  -6362.412036   -378.244994  -2201.597220 999999.999999
*  2005 04 02 12 53 30.00000000
PL06  -6386.986967   -378.939687  -2128.853981 999999.999999
*  2005 04 02 12 53 40.00000000
PL06  -6410.735280   -379.550029  -2055.832967 999999.999999
*  2005 04 02 12 53 50.00000000
PL06  -6433.653704   -380.077144  -1982.543684 999999.999999
*  2005 04 02 12 54 00.00000000
PL06  -6455.739076   -380.522173  -1908.995675 999999.999999
*  2005 04 02 12 54 10.00000000
PL06  -6476.988343   -380.886271  -1835.198518 999999.999999
*  2005 04 02 12 54 20.00000000
PL06  -6497.398564   -381.170608  -1761.161826 999999.999999
*  2005 04 02 12 54 30.00000000
PL06  -6516.966907   -381.376370  -1686.895244 999999.999999
*  2005 04 02 12 54 40.00000000
PL06  -6535.690655   -381.504755  -1612.408452 999999.999999
*  2005 04 02 12 54 50.00000000
PL06  -6553.567201   -381.556976  -1537.711157 999999.999999
EOF
